ION SCV-008             
1 55051U 23001AU  26068.82429008  .00008336  00000+0  31423-3 0  9992
2 55051  97.5676 163.6060 0015192   8.5420 351.6074 15.27226640176169
STARLINK-35499          
1 66462U 25262G   26067.99568868  .00036691  00000+0  13359-2 0  9998
2 66462  42.9970 299.8029 0000994 262.6611  97.4128 15.27588506 18807
